{
  "type": "FeatureCollection",
  "features": [
    {
      "type": "Feature",
      "properties": {
        "norad_id": 33901,
        "name": "COSMOS 2251 DEB",
        "group": "cosmos-2251-debris",
        "lat": -40.45051458179728,
        "lon": 44.60767974379476,
        "alt_km": 540.4333876406554,
        "timestamp": "2025-12-08T03:50:07.388981+00:00",
        "meta_object_name": "COSMOS 2251 DEB",
        "meta_object_id": "1993-036DE",
        "meta_epoch": "2025-12-07T04:15:06.995520",
        "meta_mean_motion": 15.1495663,
        "meta_eccentricity": 0.00335852,
        "meta_inclination": 73.7727,
        "meta_ra_of_asc_node": 61.0614,
        "meta_arg_of_pericenter": 193.3847,
        "meta_mean_anomaly": 166.646,
        "meta_ephemeris_type": 0,
        "meta_classification_type": "U",
        "meta_norad_cat_id": 33901,
        "meta_element_set_no": 999,
        "meta_rev_at_epoch": 89429,
        "meta_bstar": 0.0049584034,
        "meta_mean_motion_dot": 0.00094981,
        "meta_mean_motion_ddot": 0,
        "tle_line1": "1 33901U 93036DE  25341.17716430  .00094981  00000+0  49584-2 0  9993",
        "tle_line2": "2 33901  73.7727  61.0614 0033585 193.3847 166.6460 15.14956630894299"
      },
      "geometry": {
        "type": "Point",
        "coordinates": [
          44.60767974379476,
          -40.45051458179728
        ]
      }
    },
    {
      "type": "Feature",
      "properties": {
        "norad_id": 33905,
        "name": "COSMOS 2251 DEB",
        "group": "cosmos-2251-debris",
        "lat": -73.0997186171011,
        "lon": -106.94440775076156,
        "alt_km": 759.1995559419311,
        "timestamp": "2025-12-08T03:50:07.388992+00:00",
        "meta_object_name": "COSMOS 2251 DEB",
        "meta_object_id": "1993-036DJ",
        "meta_epoch": "2025-12-06T09:28:01.203168",
        "meta_mean_motion": 14.35349319,
        "meta_eccentricity": 0.00592728,
        "meta_inclination": 73.887,
        "meta_ra_of_asc_node": 328.3883,
        "meta_arg_of_pericenter": 219.1218,
        "meta_mean_anomaly": 297.0067,
        "meta_ephemeris_type": 0,
        "meta_classification_type": "U",
        "meta_norad_cat_id": 33905,
        "meta_element_set_no": 999,
        "meta_rev_at_epoch": 87596,
        "meta_bstar": 0.0013596896,
        "meta_mean_motion_dot": 3.953e-05,
        "meta_mean_motion_ddot": 0,
        "tle_line1": "1 33905U 93036DJ  25340.39445837  .00003953  00000+0  13597-2 0  9994",
        "tle_line2": "2 33905  73.8870 328.3883 0059272 219.1218 297.0067 14.35349319875967"
      },
      "geometry": {
        "type": "Point",
        "coordinates": [
          -106.94440775076156,
          -73.0997186171011
        ]
      }
    },
    {
      "type": "Feature",
      "properties": {
        "norad_id": 33906,
        "name": "COSMOS 2251 DEB",
        "group": "cosmos-2251-debris",
        "lat": 16.26753087208342,
        "lon": 145.3831111464094,
        "alt_km": 727.913191180377,
        "timestamp": "2025-12-08T03:50:07.389002+00:00",
        "meta_object_name": "COSMOS 2251 DEB",
        "meta_object_id": "1993-036DK",
        "meta_epoch": "2025-12-07T00:58:43.130208",
        "meta_mean_motion": 14.56932141,
        "meta_eccentricity": 0.00364553,
        "meta_inclination": 74.0306,
        "meta_ra_of_asc_node": 332.3011,
        "meta_arg_of_pericenter": 2.7375,
        "meta_mean_anomaly": 53.1606,
        "meta_ephemeris_type": 0,
        "meta_classification_type": "U",
        "meta_norad_cat_id": 33906,
        "meta_element_set_no": 999,
        "meta_rev_at_epoch": 87925,
        "meta_bstar": 0.0032718344,
        "meta_mean_motion_dot": 0.00014826,
        "meta_mean_motion_ddot": 0,
        "tle_line1": "1 33906U 93036DK  25341.04077697  .00014826  00000+0  32718-2 0  9990",
        "tle_line2": "2 33906  74.0306 332.3011 0036455   2.7375  53.1606 14.56932141879251"
      },
      "geometry": {
        "type": "Point",
        "coordinates": [
          145.3831111464094,
          16.26753087208342
        ]
      }
    },
    {
      "type": "Feature",
      "properties": {
        "norad_id": 33907,
        "name": "COSMOS 2251 DEB",
        "group": "cosmos-2251-debris",
        "lat": -32.63094232213822,
        "lon": -127.49211460868422,
        "alt_km": 829.5467236510922,
        "timestamp": "2025-12-08T03:50:07.389013+00:00",
        "meta_object_name": "COSMOS 2251 DEB",
        "meta_object_id": "1993-036DL",
        "meta_epoch": "2025-12-06T23:07:13.105632",
        "meta_mean_motion": 14.30429007,
        "meta_eccentricity": 0.01126368,
        "meta_inclination": 74.0704,
        "meta_ra_of_asc_node": 44.1429,
        "meta_arg_of_pericenter": 101.3359,
        "meta_mean_anomaly": 72.7026,
        "meta_ephemeris_type": 0,
        "meta_classification_type": "U",
        "meta_norad_cat_id": 33907,
        "meta_element_set_no": 999,
        "meta_rev_at_epoch": 86497,
        "meta_bstar": 0.002682257,
        "meta_mean_motion_dot": 7.46e-05,
        "meta_mean_motion_ddot": 0,
        "tle_line1": "1 33907U 93036DL  25340.96334613  .00007460  00000+0  26823-2 0  9991",
        "tle_line2": "2 33907  74.0704  44.1429 0112636 101.3359  72.7026 14.30429007864979"
      },
      "geometry": {
        "type": "Point",
        "coordinates": [
          -127.49211460868422,
          -32.63094232213822
        ]
      }
    },
    {
      "type": "Feature",
      "properties": {
        "norad_id": 33908,
        "name": "COSMOS 2251 DEB",
        "group": "cosmos-2251-debris",
        "lat": -73.14082615888805,
        "lon": 107.01732849245799,
        "alt_km": 730.3327089974782,
        "timestamp": "2025-12-08T03:50:07.389023+00:00",
        "meta_object_name": "COSMOS 2251 DEB",
        "meta_object_id": "1993-036DM",
        "meta_epoch": "2025-12-06T09:37:41.435328",
        "meta_mean_motion": 14.07270417,
        "meta_eccentricity": 0.02237099,
        "meta_inclination": 73.8378,
        "meta_ra_of_asc_node": 217.0126,
        "meta_arg_of_pericenter": 241.6716,
        "meta_mean_anomaly": 116.1695,
        "meta_ephemeris_type": 0,
        "meta_classification_type": "U",
        "meta_norad_cat_id": 33908,
        "meta_element_set_no": 999,
        "meta_rev_at_epoch": 85384,
        "meta_bstar": 0.0030396285,
        "meta_mean_motion_dot": 6.384e-05,
        "meta_mean_motion_ddot": 0,
        "tle_line1": "1 33908U 93036DM  25340.40117402  .00006384  00000+0  30396-2 0  9990",
        "tle_line2": "2 33908  73.8378 217.0126 0223709 241.6716 116.1695 14.07270417853840"
      },
      "geometry": {
        "type": "Point",
        "coordinates": [
          107.01732849245799,
          -73.14082615888805
        ]
      }
    },
    {
      "type": "Feature",
      "properties": {
        "norad_id": 33911,
        "name": "COSMOS 2251 DEB",
        "group": "cosmos-2251-debris",
        "lat": 2.0493044775345353,
        "lon": 171.35587855183948,
        "alt_km": 652.4509940360649,
        "timestamp": "2025-12-08T03:50:07.389050+00:00",
        "meta_object_name": "COSMOS 2251 DEB",
        "meta_object_id": "1993-036DQ",
        "meta_epoch": "2025-12-06T14:38:05.532864",
        "meta_mean_motion": 14.74605758,
        "meta_eccentricity": 0.00144402,
        "meta_inclination": 74.0895,
        "meta_ra_of_asc_node": 173.7872,
        "meta_arg_of_pericenter": 118.2376,
        "meta_mean_anomaly": 298.9978,
        "meta_ephemeris_type": 0,
        "meta_classification_type": "U",
        "meta_norad_cat_id": 33911,
        "meta_element_set_no": 999,
        "meta_rev_at_epoch": 88554,
        "meta_bstar": 0.0033379474,
        "meta_mean_motion_dot": 0.00022332,
        "meta_mean_motion_ddot": 0,
        "tle_line1": "1 33911U 93036DQ  25340.60978626  .00022332  00000+0  33379-2 0  9994",
        "tle_line2": "2 33911  74.0895 173.7872 0014440 118.2376 298.9978 14.74605758885547"
      },
      "geometry": {
        "type": "Point",
        "coordinates": [
          171.35587855183948,
          2.0493044775345353
        ]
      }
    },
    {
      "type": "Feature",
      "properties": {
        "norad_id": 33912,
        "name": "COSMOS 2251 DEB",
        "group": "cosmos-2251-debris",
        "lat": -73.51057345044126,
        "lon": 93.63781908351066,
        "alt_km": 718.496619068339,
        "timestamp": "2025-12-08T03:50:07.389062+00:00",
        "meta_object_name": "COSMOS 2251 DEB",
        "meta_object_id": "1993-036DR",
        "meta_epoch": "2025-12-07T07:20:04.252992",
        "meta_mean_motion": 14.51850803,
        "meta_eccentricity": 0.00115505,
        "meta_inclination": 74.0333,
        "meta_ra_of_asc_node": 199.961,
        "meta_arg_of_pericenter": 278.7767,
        "meta_mean_anomaly": 204.2835,
        "meta_ephemeris_type": 0,
        "meta_classification_type": "U",
        "meta_norad_cat_id": 33912,
        "meta_element_set_no": 999,
        "meta_rev_at_epoch": 88354,
        "meta_bstar": 0.0011591476,
        "meta_mean_motion_dot": 4.647e-05,
        "meta_mean_motion_ddot": 0,
        "tle_line1": "1 33912U 93036DR  25341.30560478  .00004647  00000+0  11591-2 0  9996",
        "tle_line2": "2 33912  74.0333 199.9610 0011550 278.7767 204.2835 14.51850803883548"
      },
      "geometry": {
        "type": "Point",
        "coordinates": [
          93.63781908351066,
          -73.51057345044126
        ]
      }
    }
  ]
}